{
  "type": "FeatureCollection",
  "features": [
    {
      "type": "Feature",
      "properties": {
        "norad_id": 40794,
        "name": "COSMOS 2251 DEB",
        "group": "cosmos-2251-debris",
        "lat": 6.297998187617468,
        "lon": -70.96825496726844,
        "alt_km": 586.1672103461133,
        "timestamp": "2025-12-19T08:58:49.735433+00:00",
        "meta_object_name": "COSMOS 2251 DEB",
        "meta_object_id": "1993-036BVX",
        "meta_epoch": "2025-12-13T15:37:41.141568",
        "meta_mean_motion": 14.93159868,
        "meta_eccentricity": 0.00107848,
        "meta_inclination": 73.9763,
        "meta_ra_of_asc_node": 122.399,
        "meta_arg_of_pericenter": 261.0962,
        "meta_mean_anomaly": 116.104,
        "meta_ephemeris_type": 0,
        "meta_classification_type": "U",
        "meta_norad_cat_id": 40794,
        "meta_element_set_no": 999,
        "meta_rev_at_epoch": 61938,
        "meta_bstar": 0.0047306735,
        "meta_mean_motion_dot": 0.00049759,
        "meta_mean_motion_ddot": 0,
        "tle_line1": "1 40794U 93036BVX 25347.65117062  .00049759  00000+0  47307-2 0  9990",
        "tle_line2": "2 40794  73.9763 122.3990 0010784 261.0962 116.1040 14.93159868619387"
      },
      "geometry": {
        "type": "Point",
        "coordinates": [
          -70.96825496726844,
          6.297998187617468
        ]
      }
    },
    {
      "type": "Feature",
      "properties": {
        "norad_id": 40796,
        "name": "COSMOS 2251 DEB",
        "group": "cosmos-2251-debris",
        "lat": -59.9332746663605,
        "lon": 99.3783021135812,
        "alt_km": 596.8746815958284,
        "timestamp": "2025-12-19T08:58:49.735443+00:00",
        "meta_object_name": "COSMOS 2251 DEB",
        "meta_object_id": "1993-036BVZ",
        "meta_epoch": "2025-12-18T03:16:26.396832",
        "meta_mean_motion": 14.81774084,
        "meta_eccentricity": 0.00561198,
        "meta_inclination": 74.0119,
        "meta_ra_of_asc_node": 131.5134,
        "meta_arg_of_pericenter": 267.2185,
        "meta_mean_anomaly": 268.2913,
        "meta_ephemeris_type": 0,
        "meta_classification_type": "U",
        "meta_norad_cat_id": 40796,
        "meta_element_set_no": 999,
        "meta_rev_at_epoch": 76238,
        "meta_bstar": 0.00073722049,
        "meta_mean_motion_dot": 5.947e-05,
        "meta_mean_motion_ddot": 0,
        "tle_line1": "1 40796U 93036BVZ 25352.13641663  .00005947  00000+0  73722-3 0  9992",
        "tle_line2": "2 40796  74.0119 131.5134 0056119 267.2185 268.2913 14.81774084762382"
      },
      "geometry": {
        "type": "Point",
        "coordinates": [
          99.3783021135812,
          -59.9332746663605
        ]
      }
    },
    {
      "type": "Feature",
      "properties": {
        "norad_id": 40797,
        "name": "COSMOS 2251 DEB",
        "group": "cosmos-2251-debris",
        "lat": -8.032180544512949,
        "lon": 79.15230378840785,
        "alt_km": 485.65683850210735,
        "timestamp": "2025-12-19T08:58:49.735453+00:00",
        "meta_object_name": "COSMOS 2251 DEB",
        "meta_object_id": "1993-036BWA",
        "meta_epoch": "2025-12-18T12:21:56.405088",
        "meta_mean_motion": 15.11435763,
        "meta_eccentricity": 0.00720493,
        "meta_inclination": 73.9224,
        "meta_ra_of_asc_node": 83.2734,
        "meta_arg_of_pericenter": 353.7409,
        "meta_mean_anomaly": 6.2874,
        "meta_ephemeris_type": 0,
        "meta_classification_type": "U",
        "meta_norad_cat_id": 40797,
        "meta_element_set_no": 999,
        "meta_rev_at_epoch": 64731,
        "meta_bstar": 0.00063352099,
        "meta_mean_motion_dot": 0.00011373,
        "meta_mean_motion_ddot": 0,
        "tle_line1": "1 40797U 93036BWA 25352.51523617  .00011373  00000+0  63352-3 0  9991",
        "tle_line2": "2 40797  73.9224  83.2734 0072049 353.7409   6.2874 15.11435763647310"
      },
      "geometry": {
        "type": "Point",
        "coordinates": [
          79.15230378840785,
          -8.032180544512949
        ]
      }
    },
    {
      "type": "Feature",
      "properties": {
        "norad_id": 40799,
        "name": "COSMOS 2251 DEB",
        "group": "cosmos-2251-debris",
        "lat": 8.327364889973648,
        "lon": 87.27695963997171,
        "alt_km": 517.9462989446793,
        "timestamp": "2025-12-19T08:58:49.735463+00:00",
        "meta_object_name": "COSMOS 2251 DEB",
        "meta_object_id": "1993-036BWC",
        "meta_epoch": "2025-12-16T13:34:01.060320",
        "meta_mean_motion": 14.96697184,
        "meta_eccentricity": 0.01191597,
        "meta_inclination": 73.9265,
        "meta_ra_of_asc_node": 90.5746,
        "meta_arg_of_pericenter": 331.7111,
        "meta_mean_anomaly": 27.7633,
        "meta_ephemeris_type": 0,
        "meta_classification_type": "U",
        "meta_norad_cat_id": 40799,
        "meta_element_set_no": 999,
        "meta_rev_at_epoch": 50034,
        "meta_bstar": 0.00030724083,
        "meta_mean_motion_dot": 4.009e-05,
        "meta_mean_motion_ddot": 0,
        "tle_line1": "1 40799U 93036BWC 25350.56529005  .00004009  00000+0  30724-3 0  9998",
        "tle_line2": "2 40799  73.9265  90.5746 0119159 331.7111  27.7633 14.96697184500342"
      },
      "geometry": {
        "type": "Point",
        "coordinates": [
          87.27695963997171,
          8.327364889973648
        ]
      }
    },
    {
      "type": "Feature",
      "properties": {
        "norad_id": 40802,
        "name": "COSMOS 2251 DEB",
        "group": "cosmos-2251-debris",
        "lat": -37.56247430821243,
        "lon": 127.28184077212318,
        "alt_km": 637.3770184371533,
        "timestamp": "2025-12-19T08:58:49.735473+00:00",
        "meta_object_name": "COSMOS 2251 DEB",
        "meta_object_id": "1993-036BWF",
        "meta_epoch": "2025-12-17T16:32:13.649568",
        "meta_mean_motion": 14.77662029,
        "meta_eccentricity": 0.00629965,
        "meta_inclination": 74.0395,
        "meta_ra_of_asc_node": 143.3018,
        "meta_arg_of_pericenter": 241.0781,
        "meta_mean_anomaly": 118.4067,
        "meta_ephemeris_type": 0,
        "meta_classification_type": "U",
        "meta_norad_cat_id": 40802,
        "meta_element_set_no": 999,
        "meta_rev_at_epoch": 64482,
        "meta_bstar": 0.00061564393,
        "meta_mean_motion_dot": 4.522e-05,
        "meta_mean_motion_ddot": 0,
        "tle_line1": "1 40802U 93036BWF 25351.68904687  .00004522  00000+0  61564-3 0  9996",
        "tle_line2": "2 40802  74.0395 143.3018 0062996 241.0781 118.4067 14.77662029644824"
      },
      "geometry": {
        "type": "Point",
        "coordinates": [
          127.28184077212318,
          -37.56247430821243
        ]
      }
    },
    {
      "type": "Feature",
      "properties": {
        "norad_id": 40803,
        "name": "COSMOS 2251 DEB",
        "group": "cosmos-2251-debris",
        "lat": -73.6481461634043,
        "lon": -62.876098444132104,
        "alt_km": 701.4802593758595,
        "timestamp": "2025-12-19T08:58:49.735484+00:00",
        "meta_object_name": "COSMOS 2251 DEB",
        "meta_object_id": "1993-036BWG",
        "meta_epoch": "2025-12-05T22:55:29.451072",
        "meta_mean_motion": 14.51792027,
        "meta_eccentricity": 0.00362816,
        "meta_inclination": 74.0122,
        "meta_ra_of_asc_node": 64.6912,
        "meta_arg_of_pericenter": 281.8159,
        "meta_mean_anomaly": 77.8934,
        "meta_ephemeris_type": 0,
        "meta_classification_type": "U",
        "meta_norad_cat_id": 40803,
        "meta_element_set_no": 999,
        "meta_rev_at_epoch": 58654,
        "meta_bstar": 0.00062935795,
        "meta_mean_motion_dot": 2.525e-05,
        "meta_mean_motion_ddot": 0,
        "tle_line1": "1 40803U 93036BWG 25339.95520198  .00002525  00000+0  62936-3 0  9999",
        "tle_line2": "2 40803  74.0122  64.6912 0036281 281.8159  77.8934 14.51792027586549"
      },
      "geometry": {
        "type": "Point",
        "coordinates": [
          -62.876098444132104,
          -73.6481461634043
        ]
      }
    },
    {
      "type": "Feature",
      "properties": {
        "norad_id": 40808,
        "name": "COSMOS 2251 DEB",
        "group": "cosmos-2251-debris",
        "lat": -15.350047981016068,
        "lon": -42.831009115963994,
        "alt_km": 667.7254424870998,
        "timestamp": "2025-12-19T08:58:49.735494+00:00",
        "meta_object_name": "COSMOS 2251 DEB",
        "meta_object_id": "1993-036BWM",
        "meta_epoch": "2025-12-18T11:05:09.828384",
        "meta_mean_motion": 14.67577712,
        "meta_eccentricity": 0.00086916,
        "meta_inclination": 74.0411,
        "meta_ra_of_asc_node": 134.4242,
        "meta_arg_of_pericenter": 170.7227,
        "meta_mean_anomaly": 247.3074,
        "meta_ephemeris_type": 0,
        "meta_classification_type": "U",
        "meta_norad_cat_id": 40808,
        "meta_element_set_no": 999,
        "meta_rev_at_epoch": 63703,
        "meta_bstar": 0.0013644705,
        "meta_mean_motion_dot": 7.729e-05,
        "meta_mean_motion_ddot": 0,
        "tle_line1": "1 40808U 93036BWM 25352.46191931  .00007729  00000+0  13645-2 0  9997",
        "tle_line2": "2 40808  74.0411 134.4242 0008691 170.7227 247.3074 14.67577712637032"
      },
      "geometry": {
        "type": "Point",
        "coordinates": [
          -42.831009115963994,
          -15.350047981016068
        ]
      }
    }
  ]
}